SL-6 DEB
1 13911U 81088L   14090.05461336 -.00000019  00000-0  00000+0 0  5426
2 13911 063.6660 308.3614 4282953 206.3056 340.2574 05.91667645465216
OV2-3
1 13912U 65108V   14110.11860249  .00006976  00000-0  11643-2 0  8415
2 13912 026.7331 354.8168 5769646 263.4037 335.7235 04.39767017358405
COSMOS 1447
1 13916U 83021A   14110.84283333  .00000055  00000-0  41970-4 0  3950
2 13916 082.9482 048.1467 0037152 343.3146 068.6513 13.74965711559076
SL-8 R/B
1 13917U 83021B   14108.84583296  .00000076  00000-0  61916-4 0  4595
2 13917 082.9472 025.1155 0027455 241.5482 179.0283 13.76714294560615
NOAA 8
1 13923U 83022A   14110.51152402  .00000394  00000-0  17531-3 0  9255
2 13923 098.4553 117.5251 0014298 318.2288 196.4208 14.28183471617195
THOR ABLESTAR DEB
1 13942U 61015KZ  14108.84733955  .00000270  00000-0  74439-3 0  9359
2 13942 065.8671 013.4646 0383837 072.9623 357.2283 13.03660000489065
COSMOS 886 DEB *
1 13943U 76126BM  14110.47720928  .00005066  00000-0  27621-2 0  3685
2 13943 065.5838 340.6306 0087244 249.9923 181.9236 14.11020484513208
COSMOS 839 DEB
1 13946U 76067BE  14110.09952252  .00000815  00000-0  26974-2 0  8432
2 13946 066.0632 354.4631 0654044 050.6360 097.3999 12.48294616417930
COSMOS 839 DEB
1 13947U 76067BF  14091.85023912  .00000039  00000-0  41211-3 0  3397
2 13947 065.7190 217.9645 0676026 225.1291 218.9148 12.24023953303434
COSMOS 970 DEB
1 13948U 77121BD  14109.94152573  .00001576  00000-0  16343-2 0  5415
2 13948 065.7667 029.5019 0076293 330.6675 154.6069 13.77284135690486
COSMOS 1448
1 13949U 83023A   14110.63471362  .00000103  00000-0  90916-4 0  4753
2 13949 082.9536 122.0763 0028343 295.6166 203.7025 13.75783337559417
SL-8 R/B
1 13950U 83023B   14110.52039288  .00000100  00000-0  86142-4 0   827
2 13950 082.9511 106.5634 0035850 255.2390 218.3463 13.76717463560269
SL-12 R/B(2)
1 13954U 82113F   14109.67412273 -.00000109  00000-0  00000+0 0  4966
2 13954 015.6043 352.0169 0024828 160.3978 151.9445 00.97571384 76553
TITAN 3C TRANSTAGE DEB
1 13957U 65108W   14110.11715946  .00000069  00000-0  13038-2 0  8335
2 13957 026.6498 035.1990 6751112 197.6330 347.3314 02.78173615263131
TITAN 3C TRANSTAGE DEB
1 13958U 65108X   14109.74391757  .00000048  00000-0  18701-2 0  6240
2 13958 026.8898 242.7525 6802784 143.4635 359.5763 02.69718034 98899
COSMOS 1285 DEB
1 13961U 81071F   14108.51717260  .00000702  00000-0  00000+0 0  7794
2 13961 069.7504 305.7660 5799190 111.9791 288.3761 01.98109143234256
TDRS 1
1 13969U 83026B   14110.79967507 -.00000177  00000-0  00000+0 0  7166
2 13969 013.9744 356.1402 0023245 139.4707 117.4315 00.98744196 86516
IUS R/B(2)
1 13970U 83026C   14110.57551464 -.00000114  00000-0  00000+0 0  8471
2 13970 002.3014 333.2320 1897182 140.7109 099.6509 01.32156906149865
IUS R/B(1)
1 13971U 83026D   14109.41127569  .00008853  00000-0  14782-2 0    01
2 13971 025.8132 224.6415 6290513 321.0909 023.6869 03.62508900333903
RADUGA 12
1 13974U 83028A   14108.97938758 -.00000029  00000-0  00000+0 0  3440
2 13974 014.7800 350.1842 0003147 105.7504 168.9720 01.00278441124834
SL-12 R/B(2)
1 13983U 83028F   14109.39899529 -.00000309  00000-0  00000+0 0  2540
2 13983 014.8162 350.2434 0028543 101.4232 208.6462 01.00050439113414
SATCOM 1R
1 13984U 83030A   14110.74162398 -.00000273  00000-0  00000+0 0  5152
2 13984 014.7192 019.5644 0011262 032.2987 216.5557 00.99865251 86126
COSMOS 1452
1 13991U 83031A   14110.26922650  .00000221  00000-0  90497-4 0   479
2 13991 074.0517 031.6646 0016217 010.1078 148.0303 14.32754353620676
SL-8 R/B
1 13992U 83031B   14110.10453553  .00000362  00000-0  13441-3 0  3892
2 13992 074.0533 323.3932 0005699 237.8009 251.5606 14.35717865623150
COSMOS 1191 DEB
1 13999U 80057G   14110.32980998  .00000713  00000-0  00000+0 0  8467
2 13999 067.5474 008.8979 5977282 083.8570 288.6402 02.01275954240627
COSMOS 931 DEB
1 14000U 77068G   14110.96263753 -.00000306  00000-0  00000+0 0  7099
2 14000 069.7672 296.6452 5421853 089.5620 329.2334 02.00787488245748
SL-12 R/B(2)
1 14005U 79062D   14110.74096238 -.00000183  00000-0  00000+0 0  2580
2 14005 015.4060 340.0566 0007321 133.6200 182.1346 00.97670462 78483
COSMOS 1455
1 14032U 83037A   14110.52709602  .00009109  00000-0  54616-3 0  5113
2 14032 082.5183 142.2374 0018528 317.0452 203.7827 15.10693032686748
SL-14 R/B
1 14033U 83037B   14110.82493032  .00000618  00000-0  72837-4 0  7398
2 14033 082.5084 349.3226 0016627 318.4250 088.0403 14.83091090308621
OPS 4682 DEB
1 14047U 65027J   14110.17016355 -.00000199  00000-0 -72926-3 0  8798
2 14047 090.2798 249.6974 0032102 247.3757 235.3840 12.95286764259165
OPS 4682 DEB
1 14048U 65027K   14110.37791931  .00000767  00000-0  26111-2 0  8659
2 14048 090.2970 261.7407 0016668 118.6527 273.5000 12.97613096477694
OPS 4682 DEB
1 14049U 65027L   14109.36690572  .00000620  00000-0  22199-2 0  6788
2 14049 090.2919 254.7897 0028452 303.5966 085.6972 12.93864059483802
GOES 6
1 14050U 83041A   14109.45293733 -.00000194  00000-0  00000+0 0   857
2 14050 014.7797 002.2939 0005593 101.9726 172.3585 01.00323316171526
DELTA 1 R/B(1)
1 14051U 83041B   14110.86314969  .00012041  00000-0  12139-2 0  5004
2 14051 025.3327 315.6452 1132850 030.9733 070.5661 13.00277097427617
COSMOS 1459
1 14057U 83042A   14109.96088269  .00000082  00000-0  67677-4 0  4999
2 14057 082.9750 224.6321 0049235 013.3635 124.9176 13.76431648554966
SL-8 R/B
1 14059U 83042B   14110.22170553  .00000072  00000-0  56245-4 0  3122
2 14059 082.9745 198.3417 0041241 266.7333 121.9324 13.78441800556779
COSMOS 1461
1 14064U 83044A   14110.19591256  .00011662  00000-0  11580-2 0  4728
2 14064 065.0050 244.4950 0102876 149.1161 275.2668 14.88134751551210
GOES 6 AKM
1 14069U 83041C   14104.90326527 -.00000209  00000-0  00000+0 0  3872
2 14069 021.7684 358.1678 1650831 015.3388 271.0295 00.84340716 61589
INTELSAT 506
1 14077U 83047A   14106.67130741 -.00000040  00000-0  00000+0 0   728
2 14077 014.9938 013.7007 0027599 201.9346 256.1479 00.99163526 80003
COSMOS 1464
1 14084U 83048A   14110.84993627  .00000085  00000-0  73334-4 0  9846
2 14084 082.9454 250.4241 0030928 164.4493 349.6368 13.74355475550173
SL-8 R/B
1 14085U 83048B   14110.46276428  .00000101  00000-0  87537-4 0  1052
2 14085 082.9459 226.1474 0034813 091.0450 337.8009 13.76203345551972
SL-12 R/B(2)
1 14086U 83016F   14106.72356692  .00000046  00000-0  00000+0 0   157
2 14086 014.0833 343.5294 0015609 185.6706 330.4622 01.01099906 78048
DELTA 1 R/B
1 14096U 83051B   14110.80891386 -.00000300  00000-0 -47734-3 0  7820
2 14096 072.2995 312.7046 1093364 080.7775 291.5050 12.09645158364397
SL-12 R/B(2)
1 14114U 82044F   14110.68279302 -.00000277  00000-0  00000+0 0  8987
2 14114 015.5488 346.0294 0018406 079.2154 172.9846 01.00287408 76942
SL-12 R/B(2)
1 14115U 82093F   14110.68992103 -.00000057  00000-0  00000+0 0  4198
2 14115 013.9419 343.2942 0008442 158.1979 177.2225 01.01254923 78880
SL-12 R/B(2)
1 14117U 82009F   14110.48028922 -.00000297  00000-0  00000+0 0   297
2 14117 014.1729 341.9136 0039936 077.5932 256.3713 01.00984304 78696
COSMOS 374 DEB
1 14122U 70089CW  14110.21414095  .00009730  00000-0  20124-2 0  7186
2 14122 062.8881 112.9571 0466379 176.9931 276.1324 14.09589220605952
EUTELSAT 1-F1 (ECS 1)
1 14128U 83058A   14108.98661685 -.00000074  00000-0  00000+0 0   377
2 14128 015.1254 009.4553 0014529 076.7105 213.2883 00.98868068 74314
OSCAR 10
1 14129U 83058B   14110.21464741  .00000016  00000-0  00000+0 0  1670
2 14129 026.4036 224.2074 5988987 349.8547 340.6444 02.05866741204050
SL-6 DEB
1 14131U 81088M   14106.15292394  .00004351  00000-0  19545-1 0  7796
2 14131 062.8972 284.4179 3896650 198.8146 130.6247 06.92374878581938
NAHUEL I2 (ANIK C2)
1 14133U 83059B   14108.74105557 -.00000263  00000-0  00000+0 0  8344
2 14133 014.9481 016.3768 0037747 006.9489 214.4772 00.99123828 81970
PALAPA B1
1 14134U 83059C   14109.11786111  .00000074  00000-0  00000+0 0  4129
2 14134 014.7738 010.3507 0004489 038.2632 255.0738 01.00143218 76328
ANIK C2 R/B(PAM-D)
1 14135U 83059D   14110.82663227  .00001439  00000-0  17689-2 0  9093
2 14135 023.4273 337.1431 6995764 138.1022 352.9513 02.59489011203936
PALAPA B1 R/B(PAM-D)
1 14136U 83059E   14110.86567513  .00006346  00000-0  30309-2 0  4595
2 14136 025.3483 194.2275 7052737 232.0987 287.8798 02.55139488230867
COSMOS 1470
1 14147U 83061A   14110.45637382  .00007049  00000-0  47519-3 0  9630
2 14147 082.5049 088.1163 0011086 287.2412 072.7602 15.06469594430804
SL-14 R/B
1 14148U 83061B   14110.04763924  .00000956  00000-0  11538-3 0  6198
2 14148 082.5178 270.1852 0022472 172.0501 327.3113 14.82621285663788
HILAT
1 14154U 83063A   14110.18623959  .00000626  00000-0  20962-3 0  5436
2 14154 082.0237 316.6337 0041161 031.8692 100.1656 14.35667226610165
SCOUT G-1 R/B
1 14155U 83063B   14110.11202447  .00001204  00000-0  38140-3 0  7785
2 14155 082.0223 285.3882 0037718 288.7469 209.7668 14.39098221612243
GALAXY 1
1 14158U 83065A   14108.98507499  .00000115  00000-0  00000+0 0  6326
2 14158 014.4721 023.1284 0002813 079.0642 144.1338 01.00113348 86269
GORIZONT 7
1 14160U 83066A   14110.45109905 -.00000208  00000-0  00000+0 0  1289
2 14160 015.3679 353.8109 0010160 216.1258 340.2825 00.98349360111118
COSMOS 1473
1 14171U 83069A   14109.02944741 -.00000030  00000-0 -80707-4 0  2495
2 14171 074.0261 230.7596 0044030 197.9271 283.8662 12.58696672414821
COSMOS 1474
1 14172U 83069B   14110.81874015  .00000009  00000-0  15436-3 0  3302
2 14172 074.0244 287.4583 0033598 271.0860 217.6398 12.56607919412691
COSMOS 1475
1 14173U 83069C   14108.81047925 -.00000018  00000-0 -94078-5 0  3293
2 14173 074.0276 349.0985 0021962 334.3362 092.2052 12.54514555410097
COSMOS 1476
1 14174U 83069D   14110.36656157 -.00000032  00000-0 -99687-4 0  3252
2 14174 074.0285 043.8437 0010513 035.3534 101.0488 12.52479850408004
